[{"OBJECT_NAME":"STARLINK-6303","OBJECT_ID":"2023-061V","EPOCH":"2026-03-09T22:00:01.999584","MEAN_MOTION":15.13106112,"ECCENTRICITY":0.000138,"INCLINATION":43.0014,"RA_OF_ASC_NODE":195.3943,"ARG_OF_PERICENTER":290.747,"MEAN_ANOMALY":245.0082,"EPHEMERIS_TYPE":0,"CLASSIFICATION_TYPE":"U","NORAD_CAT_ID":56393,"ELEMENT_SET_NO":999,"REV_AT_EPOCH":572,"BSTAR":0.0031053105,"MEAN_MOTION_DOT":0.00056179,"MEAN_MOTION_DDOT":0},{"OBJECT_NAME":"IRIDIUM 5","OBJECT_ID":"1997-020D","EPOCH":"2026-03-09T18:04:20.752608","MEAN_MOTION":14.97634702,"ECCENTRICITY":0.00996159,"INCLINATION":86.3893,"RA_OF_ASC_NODE":320.9794,"ARG_OF_PERICENTER":262.9032,"MEAN_ANOMALY":96.0864,"EPHEMERIS_TYPE":0,"CLASSIFICATION_TYPE":"U","NORAD_CAT_ID":24795,"ELEMENT_SET_NO":999,"REV_AT_EPOCH":52516,"BSTAR":0.00037671843,"MEAN_MOTION_DOT":4.91e-5,"MEAN_MOTION_DDOT":0}]
